#dP2022  1 31  0  0  0.00000000      96 __u+U ITR00 FIT  IAC
## 2195  86400.00000000   900.00000000 59610 0.0000000000000
+  113   C06C07C08C09C10C11C12C13C14C16C19C20C21C22C23C24C25
+        C26C27C28C29C30C32C33C34C35C36C37C38C39C40C41C42C43
+        C44C45C46E01E02E03E04E05E07E08E09E11E12E13E14E15E18
+        E19E21E24E25E26E27E30E31E33E36G01G02G03G04G05G06G07
+        G08G09G10G11G12G13G14G15G16G17G18G19G20G21G22G23G24
+        G25G26G27G28G29G30G31G32R01R02R03R04R05R07R08R09R11
+        R12R13R14R15R17R18R19R20R21R22R24  0  0  0  0  0  0
++         0  0  0  0  0  0  0  0  0  0  0  0  0  0  0  0  0
++         0  0  0  0  0  0  0  0  0  0  0  0  0  0  0  0  0
++         0  0  0  0  0  0  0  0  0  0  0  0  0  0  0  0  0
++         0  0  0  0  0  0  0  0  0  0  0  0  0  0  0  0  0
++         0  0  0  0  0  0  0  0  0  0  0  0  0  0  0  0  0
++         0  0  0  0  0  0  0  0  0  0  0  0  0  0  0  0  0
++         0  0  0  0  0  0  0  0  0  0  0  0  0  0  0  0  0
%c M  cc GPS ccc cccc cccc cccc cccc ccccc ccccc ccccc ccccc
%c cc cc ccc ccc cccc cccc cccc cccc ccccc ccccc ccccc ccccc
%f  0.0000000  0.000000000  0.00000000000  0.000000000000000
%f  0.0000000  0.000000000  0.00000000000  0.000000000000000
%i    0    0    0    0      0      0      0      0         0
%i    0    0    0    0      0      0      0      0         0
/* INFORMATION & ANALYSIS CENTER (IAC)      ULTRA-RAPID DATA
/* S/V CLOCKS ARE ALIGNED TO GNSS TIME                      
/* G:C1WC2W R:C1PC2P E:C1XC5X C:C2IC6I J:C1CC2S             
/* PCV:IGS14_2194 OL/AL:FES2004  NONE     YN ORB:CoN CLK:CoN
*  2022 01 31 15 30  0.00000000
PC06 -14789.773300  24189.178735 -31275.333980    -29.119381
PC07 -12468.202122  40189.279900    726.308558      3.996271
PC08   1337.773894  29861.074343  29816.881657    100.735453
PC09  -5100.088628  24425.432407 -33723.171694   -482.434923
PC10  -6672.537311  40767.956657   7335.116704    139.832842
PC11   6837.850084 -15289.308962 -22256.640167   -236.675795
PC12  23609.819932  -9809.246627 -11155.396716   -435.605718
PC13   6820.885755  33448.194730  25061.235300   -130.413336
PC14   7654.192838 -26438.595519   4786.365412    460.728029
PC16 -17077.248850  23407.439473 -30591.083263     70.701142
PC19   -358.504741  24437.413473 -13433.135606    903.150756
PC20 -12715.111468  24650.743552   2969.403528   -814.003407
PC21  18214.034899 -10063.336197 -18584.271563   -964.343387
PC22  12711.080816  10041.761564 -22719.174522   -958.133736
PC23 -19980.302481 -17981.009865  -7481.745448   -971.133406
PC24   7478.757299 -15989.882847  21589.248677   -943.977642
PC25 -10297.708889 -24163.008175   9378.602066   -786.276325
PC26  18717.122531    -99.534995  20695.142816    785.722071
PC27 -27398.394064   4665.755212   2610.172252    670.095994
PC28 -22868.008778  -7450.221885 -14148.384457     27.315630
PC29   5244.396591  15211.177692  22795.813162    508.881580
PC30 -16126.476430  14570.809292  17514.693865    492.373588
PC32 -18154.852203  10104.965483  18642.816744   -961.452016
PC33    250.355052 -24494.828106  13384.330647   -955.331477
PC34  15182.487737 -14849.429380 -18096.517024   -479.434366
PC35  22620.736408   7132.188370  14669.346105    118.402672
PC36   9375.277550  24392.764396  -9788.370744   -886.278337
PC37 -19121.995306  -1391.503541 -20259.449908   -959.053655
PC38      0.000000      0.000000      0.000000 999999.999999
PC39 -21692.093920  23488.449218 -27557.159388     34.736450
PC40 -18244.661206  37889.052326  -1334.351204    240.423740
PC41 -12568.682537 -10465.874906  22660.706565   -930.192860
PC42  13158.590526 -24312.962330  -3811.172065   -929.608390
PC43  -4489.279665 -15486.892597 -22782.278978   -944.588830
PC44  27226.772295  -5522.104298  -2429.838803    549.694863
PC45  20031.347483  17859.299612   7700.161730    668.347230
PC46  -6183.668656  17029.875866 -21240.346464   -143.913972
PE01 -14687.118757  10433.980578 -23491.142065   -570.145963
PE02  14640.100739 -10561.700034  23448.017608    277.224389
PE03  25026.647946 -15005.399702  -4997.461730   -522.881104
PE04 -14113.381680  22561.731573 -12961.838683   -954.650008
PE05  21431.587898   1521.012518 -20359.594268   -213.428213
PE07  -5417.586341 -16935.838739  23667.843670   -634.218641
PE08  13716.613276 -22577.458894  13358.082150   5863.025960
PE09   5627.363028  16659.626956 -23809.700816   5376.192082
PE11  16300.909815  18215.077763  16679.904421   4557.755492
PE12  -5416.208202  15231.296055  24801.006001   4782.571827
PE13 -15790.098260 -18210.618515 -17177.365892    426.144356
PE14  19000.082328   5401.962927  16090.867863  -1729.488781
PE15   5471.835582 -15117.643095 -24840.749975    766.062028
PE18 -13663.072084 -15079.965295 -23550.516020  -1847.240199
PE19 -25430.259977  13278.875875   7309.514991    491.264707
PE21 -16555.062010 -10853.648682 -22006.625073   -714.459936
PE24   8183.678374  27684.316135   6603.090658  -1365.300248
PE25  16516.942276  11155.290149  21891.304966   -562.087831
PE26 -27800.817166 -10047.500871   1545.623510   -751.765898
PE27  -9013.759214 -27089.822385  -7777.354771   -221.899067
PE30   4622.161928 -26718.408516  11831.028710   -236.603128
PE31  -3761.465918  27266.439271 -10902.838329   -491.522993
PE33 -23426.961521   3127.367104  17836.900828   -459.862771
PE36  27628.786184  10595.711668   -509.289017   -325.800413
PG01 -22469.753841 -14471.190188  -1420.189930    443.192486
PG02   6653.414565  17878.396108  19095.479230   -649.927872
PG03 -12718.284245 -13848.763123  18699.839874   -101.001944
PG04 -18325.524376  -4975.194323  18607.046288   -192.175768
PG05   5845.252039  24914.735835  -6971.987743    -69.812201
PG06  -9849.398233  11170.800637  22066.925488    187.248681
PG07 -23200.076169  -3178.816741 -12608.953367    306.654291
PG08  -8860.538032 -12310.416022 -21834.587801    -54.322753
PG09 -23707.181312   5461.374970  10624.794253   -356.015743
PG10  11680.586093 -16265.741612 -17156.126684   -307.904226
PG11   4457.256841  18444.914461  18587.992446    -98.722083
PG12  10498.537464  17178.733776  17130.108737   -164.060222
PG13   -289.323850  15968.975067 -21348.624919    254.171503
PG14 -12922.784279  15437.646572 -17295.183802    -78.091459
PG15  11113.833432  11702.727342 -21515.488697    -87.363900
PG16   -419.002654 -26022.062228  -4088.817443   -463.294566
PG17 -22326.814566  14008.985862   3901.821858    568.886797
PG18  22658.495194   2797.828049 -13659.171903    249.851398
PG19 -18098.629322  15887.297548  10735.988936    112.824575
PG20   1247.910436  26396.355359   3800.600060    516.918945
PG21 -18553.753399 -16420.643685  -9693.096350    157.212959
PG22  14606.242719 -17536.393072  13823.038503    206.696251
PG23  14794.204585  -4360.388958 -21626.274996      5.738174
PG24  21299.788197  15187.740082  -6017.698439    276.337968
PG25  14984.428624   4107.975516  21290.746503    278.901389
PG26   5574.133098 -24066.484392   9252.629985    179.241346
PG27   2872.483504 -17336.386535 -19983.573758     97.682768
PG28  -9442.238966  22312.081862 -10618.078256    410.447888
PG29  23085.678005  -1419.514820  13065.589464   -474.364898
PG30 -18063.234488   5239.246555 -18773.867475   -510.432697
PG31   8182.981274 -12915.890225  21593.412115   -162.549701
PG32  19256.784372 -16858.192270   6850.067679    -59.645319
PR01   -371.888248 -16671.665414  19307.487469      7.085524
PR02 -13082.748667    890.753739  21933.703196    508.230177
PR03 -16805.175805  16075.883450  10590.258083     50.791518
PR04 -11183.528274  21986.067033  -6496.779152    125.823059
PR05    548.849594  15819.821273 -20001.391049     86.907722
PR07  16703.279117 -16516.248827  -9844.599776     31.212613
PR08  10962.683670 -22032.952448   6711.990495    -63.354850
PR09  15292.313347  11448.514886  16879.053404     37.015806
PR11  -1302.713023 -19525.799404  16372.874056     46.357757
PR12 -11713.211828 -22631.316955   -769.231140     17.049149
PR13 -15180.362549 -12595.295234 -16190.312401    -17.712793
PR14  -9497.675842   5842.253707 -22935.917499     73.835830
PR15   1478.594781  19987.152465 -15769.580891     98.525560
PR17 -22134.937949   3917.331544  12037.847546    497.511210
PR18  -7948.510662   9442.392423  22352.440087    105.694649
PR19   9188.560952  10486.737575  21365.232964   -176.460085
PR20  24187.942955   5263.455480   6072.446249    -64.051282
PR21  21371.394179  -4361.427301 -13237.994334   -274.389129
PR22   6852.122720  -9555.549350 -22629.082128   -161.682266
PR24 -24536.235166  -4518.696466  -5268.878157     78.113223
EOF
